[{"OBJECT_NAME":"STARLINK-6095","OBJECT_ID":"2023-046J","EPOCH":"2026-03-09T05:46:04.840320","MEAN_MOTION":15.02532627,"ECCENTRICITY":8.256e-5,"INCLINATION":42.9998,"RA_OF_ASC_NODE":161.456,"ARG_OF_PERICENTER":219.4231,"MEAN_ANOMALY":140.6552,"EPHEMERIS_TYPE":0,"CLASSIFICATION_TYPE":"U","NORAD_CAT_ID":56101,"ELEMENT_SET_NO":999,"REV_AT_EPOCH":16199,"BSTAR":7.92342e-7,"MEAN_MOTION_DOT":-1.93e-6,"MEAN_MOTION_DDOT":0},{"OBJECT_NAME":"QPS-SAR-8 (AMATERU-IV)","OBJECT_ID":"2024-149CC","EPOCH":"2026-03-09T16:54:01.213344","MEAN_MOTION":15.03026697,"ECCENTRICITY":0.0003873,"INCLINATION":97.6699,"RA_OF_ASC_NODE":148.7511,"ARG_OF_PERICENTER":93.15,"MEAN_ANOMALY":267.0168,"EPHEMERIS_TYPE":0,"CLASSIFICATION_TYPE":"U","NORAD_CAT_ID":60542,"ELEMENT_SET_NO":999,"REV_AT_EPOCH":8532,"BSTAR":0.00061811246,"MEAN_MOTION_DOT":8.268e-5,"MEAN_MOTION_DDOT":0}]
