STARLINK-6095           
1 56101U 23046J   26068.24033380 -.00000193  00000+0  79234-6 0  9997
2 56101  42.9998 161.4560 0000825 219.4231 140.6552 15.02532627161998
QPS-SAR-8 (AMATERU-IV)  
1 60542U 24149CC  26068.70418071  .00008268  00000+0  61811-3 0  9990
2 60542  97.6699 148.7511 0003873  93.1500 267.0168 15.03026697 85328
